GSAT0222 (PRN E33)      
1 43565U 18060B   22293.04395587 -.00000088  00000+0  00000+0 0  9992
2 43565  57.2162  17.8198 0003277 258.6655 101.3304  1.70476307 26430
GSAT0219 (PRN E36)      
1 43566U 18060C   22292.67791370 -.00000089  00000+0  00000+0 0  9992
2 43566  57.2168  17.8318 0003065 257.5817 102.4163  1.70476272 26407
GSAT0220 (PRN E13)      
1 43567U 18060D   22294.65787295 -.00000083  00000+0  00000+0 0  9998
2 43567  57.2170  17.7791 0003651 255.7289 104.2658  1.70476110 26421
BEIDOU-3 M9 (C23)       
1 43581U 18062A   22295.62067950 -.00000012  00000+0  00000+0 0  9995
2 43581  54.2444 227.7329 0004975 287.0738 277.6251  1.86231872 28792
BEIDOU-3 M10 (C24)      
1 43582U 18062B   22295.50423351 -.00000012  00000+0  00000+0 0  9994
2 43582  54.2441 227.7267 0005635 353.4425 225.1356  1.86232370 28794
BEIDOU-3 M11 (C25)      
1 43602U 18067A   22295.39236301 -.00000013  00000+0  00000+0 0  9997
2 43602  54.3275 226.3566 0007296   6.1590 178.5044  1.86231489 28289
BEIDOU-3 M12 (C26)      
1 43603U 18067B   22295.47289839 -.00000012  00000+0  00000+0 0  9990
2 43603  54.3244 226.3202 0004466 352.7893 156.2191  1.86231404 28301
BEIDOU-3 M13 (C32)      
1 43622U 18072A   22295.21176587  .00000080  00000+0  00000+0 0  9998
2 43622  55.5554 107.0969 0004069 286.1602  76.7280  1.86231610 27810
BEIDOU-3 M14 (C33)      
1 43623U 18072B   22295.07801182  .00000080  00000+0  00000+0 0  9999
2 43623  55.5570 107.0937 0002460 338.8417  24.6102  1.86231596 27814
BEIDOU-3 M15 (C34)      
1 43647U 18078A   22294.68244072 -.00000070  00000+0  10000-3 0  9991
2 43647  55.0737 346.2654 0005245 355.8181 358.1368  1.86233143 27307
BEIDOU-3 M16 (C35)      
1 43648U 18078B   22295.47564723 -.00000066  00000+0  00000+0 0  9998
2 43648  55.0699 346.2441 0002955   9.3253  63.9700  1.86232240 27347
BEIDOU-3 G1 (C59)       
1 43683U 18085A   22295.56279931 -.00000268  00000+0  00000+0 0  9993
2 43683   1.0430 147.1729 0004449  54.8615 171.6247  1.00272264 14686
COSMOS 2529 (757)       
1 43687U 18086A   22295.29948140 -.00000003  00000+0  00000+0 0  9990
2 43687  64.3479 237.8237 0011107 266.1048 263.8576  2.13102084 30867
BEIDOU-3 M17 (C36)      
1 43706U 18093A   22294.97978283 -.00000016  00000+0  00000+0 0  9999
2 43706  54.3262 227.6505 0009750 282.4530  77.4317  1.86231998 26695
BEIDOU-3 M18 (C37)      
1 43707U 18093B   22295.61702211 -.00000011  00000+0  00000+0 0  9993
2 43707  54.3269 227.6182 0009007 304.0504 214.4150  1.86232230 26699
GPS BIII-1  (PRN 04)    
1 43873U 18109A   22295.05945288  .00000085  00000+0  00000+0 0  9996
2 43873  55.1112 144.8971 0021082 187.5720 350.4869  2.00555508 28318
BEIDOU-3 IGSO-1 (C38)   
1 44204U 19023A   22295.63629407 -.00000209  00000+0  00000+0 0  9996
2 44204  56.7506  51.6118 0024035 190.3180 137.8051  1.00271265 12982
BEIDOU-2 G8             
1 44231U 19027A   22295.63337626 -.00000237  00000+0  00000+0 0  9990
2 44231   1.1642  79.5660 0006321 123.0544 200.9403  1.00276400 12690
COSMOS 2534 (758)       
1 44299U 19030A   22295.13546552 -.00000003  00000+0  00000+0 0  9994
2 44299  64.4207 237.7261 0013517 284.6939 253.9011  2.13101815 26505
BEIDOU-3 IGSO-2 (C39)   
1 44337U 19035A   22295.59788301 -.00000096  00000+0  00000+0 0  9994
2 44337  55.1253 170.5939 0025499 189.7671   5.2664  1.00265385 12327
GPS BIII-2  (PRN 18)    
1 44506U 19056A   22294.59577068 -.00000085  00000+0  00000+0 0  9998
2 44506  55.7316  24.0400 0029192 182.8848 280.6329  2.00558873 23306
BEIDOU-3 M23 (C45)      
1 44542U 19061A   22294.91612605 -.00000017  00000+0  00000+0 0  9992
2 44542  54.5525 227.8195 0008923 340.7184  19.2412  1.86231573 20940
BEIDOU-3 M24 (C46)      
1 44543U 19061B   22294.77758017 -.00000017  00000+0  00000+0 0  9995
2 44543  54.5512 227.7924 0006371 324.6215 213.9147  1.86231816 20934
BEIDOU-3 IGSO-3         
1 44709U 19073A   22295.39979941 -.00000152  00000+0  10000-3 0  9997
2 44709  57.0592 295.0647 0027211 183.3178 176.3478  1.00270338 11069
BEIDOU-3 M21            
1 44793U 19078A   22295.30317767 -.00000067  00000+0  10000-3 0  9993
2 44793  54.9226 346.2502 0004912   8.8592 354.9634  1.86232267 19817
BEIDOU-3 M22            
1 44794U 19078B   22295.42688216 -.00000067  00000+0  00000+0 0  9992
2 44794  54.8967 346.2347 0002944 359.7809 358.8601  1.86232691 19805
COSMOS 2544 (759)       
1 44850U 19088A   22294.44083772  .00000105  00000+0  16595+1 0  9992
2 44850  64.9828 118.4644 0010654 251.5396  99.5989  2.13102225 22253
BEIDOU-3 M19            
1 44864U 19090A   22294.02062450  .00000077  00000+0  00000+0 0  9995
2 44864  55.4895 107.3408 0014809 268.1788  61.9952  1.86232049 19365
BEIDOU-3 M20            
1 44865U 19090B   22295.53342094  .00000080  00000+0  00000+0 0  9992
2 44865  55.4922 107.3221 0012866 284.8521  69.4237  1.86231773 19363
BEIDOU-3 G2             
1 45344U 20017A   22295.52201990 -.00000137  00000+0  00000+0 0  9998
2 45344   2.0087 358.5951 0003175 176.0076 124.2819  1.00273839  9883
COSMOS 2545 (760)       
1 45358U 20018A   22295.59986639 -.00000054  00000+0  00000+0 0  9999
2 45358  64.9070 358.9011 0010537 240.5322 129.0955  2.13102686 20242
BEIDOU-3 G3             
1 45807U 20040A   22295.59216139 -.00000348  00000+0  00000+0 0  9990
2 45807   1.1656 307.8477 0008574 339.5633  67.1936  1.00279105  8709
GPS BIII-3  (PRN 23)    
1 45854U 20041A   22295.48500507  .00000020  00000+0  00000+0 0  9992
2 45854  55.6227  81.2714 0027744 179.1332 144.8619  2.00569054 17280
GALAXY 30 (WAAS/PRN 135)
1 46114U 20056C   22295.39271038  .00000044  00000+0  00000+0 0  9998
2 46114   0.0208 250.9923 0002922 321.0726 195.1496  1.00272595  7917
GPS BIII-4  (PRN 14)    
1 46826U 20078A   22295.32463627 -.00000008  00000+0  00000+0 0  9993
2 46826  54.4905 264.9449 0023904 191.7268 353.2458  2.00565247 14753
GPS BIII-5  (PRN 11)    
1 48859U 21054A   22295.35871977 -.00000082  00000+0  00000+0 0  9992
2 48859  55.2409  25.9471 0008467 204.4621 190.1778  2.00566167 10000
